GSAT-16                 
1 40332U 14078A   17347.61812569  .00000083  00000-0  00000-0 0  9993
2 40332   0.0211 326.4314 0002836 140.2350 253.3647  1.00271854 10970
DIRECTV 14              
1 40333U 14078B   17348.37754487 -.00000125  00000-0  00000+0 0  9999
2 40333   0.0103 320.2783 0000294 104.9753  54.6694  1.00271285 11099
YAMAL 401               
1 40345U 14082A   17348.20598610 -.00000229  00000-0  00000+0 0  9998
2 40345   0.0152  68.6367 0000174 240.9866 297.5524  1.00272009 11253
ASTRA 2G                
1 40364U 14089A   17347.69231869  .00000148  00000-0  00000-0 0  9998
2 40364   0.0273 355.1414 0001381  39.1789 325.6950  1.00271708 10810
FENGYUN 2G              
1 40367U 14090A   17347.96881498 -.00000330  00000-0  00000-0 0  9996
2 40367   0.1704 190.5141 0001484 120.2557 225.0653  1.00282820 10887
INMARSAT 5-F2           
1 40384U 15005A   17348.34929002 -.00000285  00000-0  00000+0 0  9997
2 40384   0.0236 343.3909 0000159  46.1136 124.4443  1.00269118 10527
ABS-3A                  
1 40424U 15010A   17347.77852270 -.00000027  00000-0  00000+0 0  9990
2 40424   0.0213 357.9720 0002341 179.3014 182.7280  1.00270608 10250
EUTELSAT 115 WEST B     
1 40425U 15010B   17347.09139820 -.00000028  00000-0  00000+0 0  9996
2 40425   0.0063 103.3001 0000268  82.3743 174.3253  1.00269828 10278
EXPRESS-AM7             
1 40505U 15012A   17348.16901425  .00000150  00000-0  00000+0 0  9999
2 40505   0.0003   4.8167 0002545 252.9889 286.0493  1.00272004 10205
IRNSS-1D                
1 40547U 15018A   17347.27274773 -.00000327  00000-0  00000+0 0  9998
2 40547  28.7342 292.1894 0019118 185.3276 174.6375  1.00277433 10084
THOR 7                  
1 40613U 15022A   17347.77218558 -.00000009  00000-0  00000-0 0  9999
2 40613   0.0161 250.9834 0002512  13.7780  95.2162  1.00272176  9663
TURKMENALEM52E/MONACOSAT
1 40617U 15023A   17347.62634369  .00000102  00000-0  00000-0 0  9993
2 40617   0.0136  30.8075 0001778 246.3234  82.8550  1.00271790  9688
DIRECTV 15              
1 40663U 15026A   17348.05513869 -.00000104  00000-0  00000+0 0  9998
2 40663   0.0232  70.6375 0000486  38.0030 251.3713  1.00270699  9384
SKY MEXICO-1            
1 40664U 15026B   17347.98865227 -.00000235  00000-0  00000+0 0  9993
2 40664   0.0117  44.6592 0001955 224.0520  91.2728  1.00272856  9386
METEOSAT-11 (MSG-4)     
1 40732U 15034A   17347.42041308 -.00000028  00000-0  00000-0 0  9994
2 40732   1.5350 229.2833 0001661  37.3486 323.5036  1.00269055  8880
STAR ONE C4             
1 40733U 15034B   17347.96430236 -.00000266  00000-0  00000+0 0  9999
2 40733   0.0562  71.6902 0001778 231.5609  56.7383  1.00271469  8882
INTELSAT 34 (IS-34)     
1 40874U 15039A   17347.92422659 -.00000286  00000-0  00000+0 0  9998
2 40874   0.0239 338.9422 0000469 173.8910 207.1693  1.00268888  8522
EUTELSAT 8 WEST B       
1 40875U 15039B   17347.79248463 -.00000067  00000-0  00000-0 0  9991
2 40875   0.0681  23.4845 0003642 247.6090  88.8709  1.00271649  8525
GSAT-6                  
1 40880U 15041A   17347.54018134 -.00000167  00000-0  00000-0 0  9994
2 40880   0.0309 282.4156 0010429 344.5766  92.8942  1.00271941  8493
INMARSAT 5-F3           
1 40882U 15042A   17348.27022044  .00000050  00000-0  00000+0 0  9992
2 40882   0.0222 345.5777 0000019  48.6114 325.8111  1.00270167  8409
TJS-1                   
1 40892U 15046A   17347.76244130 -.00000158  00000-0  00000-0 0  9993
2 40892   0.0621  92.5026 0008426 253.7161 165.8899  1.00269546  8392
EXPRESS-AM8             
1 40895U 15048A   17348.23641859 -.00000112  00000-0  00000+0 0  9999
2 40895   0.0088 227.9461 0000231  30.6113 255.6480  1.00271226  8228
SKY MUSTER (NBN1A)      
1 40940U 15054A   17348.37919491 -.00000279  00000-0  00000+0 0  9996
2 40940   0.0234 334.3600 0001633 293.5553  92.0660  1.00268832  8137
ARSAT 2                 
1 40941U 15054B   17346.99753463 -.00000228  00000-0  00000-0 0  9993
2 40941   0.0140 292.8368 0001753 335.9766  91.1724  1.00271433  8168
MORELOS 3               
1 40946U 15056A   17347.99786246 -.00000050  00000-0  00000+0 0  9998
2 40946   6.1883 329.0143 0002751 341.4840  18.5088  1.00276411  8136
APSTAR 9                
1 40982U 15059A   17348.37428455 -.00000266  00000-0  00000+0 0  9998
2 40982   0.0199 323.5712 0001963 317.2375  79.1692  1.00270282  8008
TURKSAT 4B              
1 40984U 15060A   17347.63191571  .00000113  00000-0  00000-0 0  9997
2 40984   0.0156 333.5644 0001826 293.1087  93.3123  1.00276173  7964
CHINASAT 2C (ZX 2C)     
1 41021U 15063A   17348.01920970 -.00000324  00000-0  00000+0 0  9993
2 41021   0.0192 214.5300 0004747 111.2937 227.4170  1.00272130  7852
GSAT-15                 
1 41028U 15065A   17347.51139878 -.00000260  00000-0  00000-0 0  9995
2 41028   0.0543 112.0168 0002244 151.0067  96.9570  1.00272194  7694
BADR-7 (ARABSAT-6B)     
1 41029U 15065B   17347.69820159  .00000144  00000-0  00000-0 0  9994
2 41029   0.0587 263.6823 0005109 340.7307 115.5404  1.00273958  7616
LAOSAT 1                
1 41034U 15067A   17347.41449184 -.00000346  00000-0  00000-0 0  9992
2 41034   0.0089  59.5645 0000949 119.3089 181.1267  1.00268410  7700
TELSTAR 12V             
1 41036U 15068A   17347.81199114 -.00000120  00000-0  00000-0 0  9994
2 41036   0.0221 352.6419 0001932 280.2702  87.0657  1.00270213  7463
CHINASAT 1C (ZX 1C)     
1 41103U 15073A   17347.96433627 -.00000152  00000-0  00000-0 0  9996
2 41103   0.0102 237.8487 0006597  47.3190 226.3645  1.00270970  7511
ELEKTRO-L 2             
1 41105U 15074A   17347.90393208 -.00000097  00000-0  00000-0 0  9991
2 41105   0.0641 286.0316 0001540 321.4702 236.6392  1.00272021  7361
COSMOS 2513             
1 41121U 15075A   17347.80709065 -.00000139  00000-0  00000+0 0  9997
2 41121   0.0802  97.9123 0002970 183.5192 172.0427  1.00271159  7443
EXPRESS-AMU1            
1 41191U 15082A   17347.99910336  .00000155  00000-0  00000+0 0  9994
2 41191   0.0057  35.5502 0002350 205.8027 237.3135  1.00275209  7359
GAOFEN 4                
1 41194U 15083A   17347.96866275 -.00000336  00000-0  00000-0 0  9990
2 41194   0.0547  93.3965 0004495 153.8805 289.9991  1.00271984  7336
BELINTERSAT-1           
1 41238U 16001A   17348.16916418  .00000106  00000-0  00000+0 0  9991
2 41238   0.0036 281.9516 0001384 297.8205 335.6970  1.00275145  7117
IRNSS-1E                
1 41241U 16003A   17346.77257382 -.00000275  00000-0  00000-0 0  9999
2 41241  29.0769 111.6088 0020513 178.3452 181.5737  1.00270228  6924
INTELSAT 29E (IS-29E)   
1 41308U 16004A   17346.91163406 -.00000285  00000-0  00000-0 0  9994
2 41308   0.0135 286.1678 0001228 342.9113  90.9127  1.00272668  7020
EUTELSAT 9B             
1 41310U 16005A   17347.74541855  .00000060  00000-0  00000+0 0  9997
2 41310   0.0636  94.9676 0005607 188.7441  76.2319  1.00272687  6959
SES-9                   
1 41380U 16013A   17347.47041764 -.00000347  00000-0  00000-0 0  9997
2 41380   0.0174 317.7047 0000558 308.1782  94.1169  1.00271278  6336
EUTELSAT 65 WEST A      
1 41382U 16014A   17347.95103473 -.00000277  00000-0  00000+0 0  9990
2 41382   0.0460 356.8828 0001977 277.9493  85.1518  1.00273928  6494
IRNSS-1F                
1 41384U 16015A   17347.40585237  .00000159  00000-0  00000-0 0  9994
2 41384   3.7903 260.4673 0016709 178.3710 181.9470  1.00273048  6531
IRNSS-1G                
1 41469U 16027A   17348.13797453 -.00000331  00000-0  00000+0 0  9999
2 41469   3.8587 261.9584 0002811 193.9847 166.3254  1.00271623  6044
JCSAT 2B                
1 41471U 16028A   17347.34378128 -.00000168  00000-0  00000+0 0  9997
2 41471   0.0247 341.4415 0001897 287.3875  91.1492  1.00270706  5924
THAICOM 8               
1 41552U 16031A   17347.55292413 -.00000123  00000-0  00000-0 0  9998
2 41552   0.0658  47.2174 0003392 278.2053  34.5614  1.00271805  5571
INTELSAT 31 (IS-31)     
1 41581U 16035A   17347.03646823 -.00000154  00000-0  00000+0 0  9998
2 41581   0.0185 267.6945 0001811 302.1410 150.1600  1.00271964  5532
BEIDOU G7               
1 41586U 16037A   17348.36728463 -.00000247  00000-0  00000+0 0  9996
2 41586   0.9749 329.2362 0003697 290.5704 100.1609  1.00275331  5648
ABS-2A (MONGOLSAT-1)    
1 41588U 16038A   17346.56611264 -.00000088  00000-0  00000+0 0  9992
2 41588   0.0250  80.0703 0001821  90.4529 189.4858  1.00270269  5548
EUTELSAT 117 WEST B     
1 41589U 16038B   17348.09451984 -.00000012  00000-0  00000+0 0  9991
2 41589   0.0116 153.6850 0000387  77.5430 128.7751  1.00272951  5552
BRISAT                  
1 41591U 16039A   17348.35073519 -.00000197  00000-0  00000+0 0  9992
2 41591   0.0192 333.6581 0001906 292.4204  93.9064  1.00268070  5495
ECHOSTAR 18             
1 41592U 16039B   17346.94307392 -.00000285  00000-0  00000-0 0  9994
2 41592   0.0183 329.8382 0001848 311.0450  79.1019  1.00272662  5474
TIANTONG-1 1            
1 41725U 16048A   17347.96257418 -.00000320  00000-0  00000+0 0  9997
2 41725   4.3368 325.7474 0006997 350.5657 214.4635  1.00271844  5118
JCSAT-16                
1 41729U 16050A   17347.32148898 -.00000094  00000-0  00000+0 0  9993
2 41729   0.0301  80.1361 0001638 207.8977  71.9544  1.00273189  4911
INTELSAT 36 (IS-36)     
1 41747U 16053A   17347.58067187 -.00000026  00000-0  00000-0 0  9991
2 41747   0.0190  32.2674 0002490 292.4255  35.2969  1.00271132  4839
INTELSAT 33E (IS-33E)   
1 41748U 16053B   17347.60420214  .00000047  00000-0  00000-0 0  9991
2 41748   0.0160 359.6079 0002058 256.4164 103.9590  1.00273124  5108
INSAT-3DR               
1 41752U 16054A   17347.56518278 -.00000079  00000-0  00000+0 0  9995
2 41752   0.0197 315.2989 0009335 318.8550  85.7453  1.00271021  4656
GSAT-18                 
1 41793U 16060A   17347.56572780 -.00000079  00000-0  00000-0 0  9996
2 41793   0.0358  99.6505 0003394 355.4719 264.9226  1.00272378  4385
